COSMOS 2433 (720)       
1 32275U 07052A   22357.22654517 -.00000036  00000+0  00000+0 0  9992
2 32275  66.0675 358.4053 0005236 254.5387 106.7729  2.13104208117999
COSMOS 2432 (719)       
1 32276U 07052B   22357.76174722 -.00000039  00000+0  00000+0 0  9990
2 32276  66.0816 358.4924 0011269 315.0993  44.5657  2.13103421117998
COSMOS 2434 (721)       
1 32393U 07065A   22357.12979855  .00000082  00000+0  00000+0 0  9991
2 32393  64.3576 234.9916 0003609  69.3904 107.9127  2.13103178116692
COSMOS 2436 (723)       
1 32395U 07065C   22356.84232801  .00000084  00000+0  00000+0 0  9996
2 32395  64.3664 235.0606 0016614   3.3026  89.1684  2.13102838116627
COSMOS 2456 (730)       
1 36111U 09070A   22357.15674564  .00000014  00000+0  00000+0 0  9998
2 36111  64.4065 114.5729 0001668 315.9703  44.9342  2.13099124101365
COSMOS 2457 (733)       
1 36112U 09070B   22357.22340868  .00000013  00000+0  00000+0 0  9993
2 36112  64.3899 114.4424 0006464 156.4380  24.3939  2.13101334101360
COSMOS 2460 (732)       
1 36402U 10007C   22357.70079368 -.00000039  00000+0  00000+0 0  9993
2 36402  65.9367 357.1492 0002409 265.9293 266.6235  2.13106370 99725
COSMOS 2476 (744)       
1 37867U 11064A   22356.80211228  .00000016  00000+0  00000+0 0  9990
2 37867  64.6920 116.0142 0021508 231.0094 124.9435  2.13101795 86696
COSMOS 2477 (745)       
1 37868U 11064B   22357.04771601  .00000016  00000+0  00000+0 0  9994
2 37868  64.6988 116.0726 0018681 231.4091 130.9825  2.13101620 86662
COSMOS 2475 (743)       
1 37869U 11064C   22356.63105094  .00000016  00000+0  00000+0 0  9996
2 37869  64.7060 116.0966 0022181 250.0910 110.8641  2.13101791 86660
COSMOS 2485 (747)       
1 39155U 13019A   22357.30440255  .00000017  00000+0  00000+0 0  9995
2 39155  64.8542 116.4660 0021934 226.9686 198.7221  2.13101838 75184
COSMOS 2492 (754)       
1 39620U 14012A   22357.21636877 -.00000037  00000+0  00000+0 0  9996
2 39620  65.8224 356.8198 0014321 313.3788  79.0922  2.13103236 68131
COSMOS 2500 (755)       
1 40001U 14032A   22357.12578223 -.00000037  00000+0  00000+0 0  9993
2 40001  65.7610 356.6704 0007972 219.9783 321.1187  2.13102420 66344
COSMOS 2501 (702K)      
1 40315U 14075A   22356.90218199  .00000083  00000+0  00000+0 0  9996
2 40315  63.6624 234.5782 0017453 207.6148 330.8566  2.13101360 62748
COSMOS 2514 (751)       
1 41330U 16008A   22356.64957297 -.00000035  00000+0  00000+0 0  9990
2 41330  65.5601 356.3293 0011545 224.4656 135.4728  2.13102574 53500
COSMOS 2516 (753)       
1 41554U 16032A   22357.24065775  .00000082  00000+0  00000+0 0  9994
2 41554  63.8883 234.8962 0013984 213.1736 146.8352  2.13106397 51129
COSMOS 2522 (752)       
1 42939U 17055A   22357.24828813  .00000081  00000+0  00000+0 0  9997
2 42939  64.1225 235.3466 0006395 244.2705 335.2889  2.13102114 40877
COSMOS 2527 (756)       
1 43508U 18053A   22357.13910161  .00000017  00000+0  00000+0 0  9994
2 43508  65.0167 116.5120 0007985 217.0291 310.7703  2.13102516 35161
COSMOS 2529 (757)       
1 43687U 18086A   22357.24810141  .00000081  00000+0  00000+0 0  9998
2 43687  64.3379 235.7122 0008480 270.7431 264.1626  2.13102179 32185
COSMOS 2534 (758)       
1 44299U 19030A   22356.74163495  .00000083  00000+0  00000+0 0  9997
2 44299  64.4106 235.6325 0011371 292.8665 347.8821  2.13101922 27810
COSMOS 2544 (759)       
1 44850U 19088A   22356.73455593  .00000017  00000+0  16595+1 0  9999
2 44850  65.0016 116.3729 0011430 250.1824  10.5694  2.13102281 23584
COSMOS 2545 (760)       
1 45358U 20018A   22357.52619012 -.00000041  00000+0  00000+0 0  9995
2 45358  64.8994 356.7544 0011620 250.8302 106.4866  2.13102751 21557
COSMOS 2547 (705K)      
1 46805U 20075A   22356.90366390  .00000084  00000+0  00000+0 0  9991
2 46805  64.6357 235.1065 0006146 245.5997 207.7830  2.13102997 16790
COSMOS 2557 (706K)      
1 52984U 22075A   22357.04581046 -.00000038  00000+0  10000-3 0  9996
2 52984  64.8064 358.9591 0013764 279.4850 160.1189  2.13101778  3597
COSMOS 2559 (707K)      
1 54031U 22130A   22357.28853318 -.00000039  00000+0  00000+0 0  9999
2 54031  64.7781 359.0871 0007604 232.1706  78.9550  2.13101384  1579
COSMOS 2564 (761)       
1 54377U 22161A   22357.88152240  .00000078  00000+0  00000+0 0  9990
2 54377  64.7776 235.0878 0007279 216.8646  39.2508  2.13102296   537
